OBJECT_NAME,OBJECT_ID,EPOCH,MEAN_MOTION,ECCENTRICITY,INCLINATION,RA_OF_ASC_NODE,ARG_OF_PERICENTER,MEAN_ANOMALY,EPHEMERIS_TYPE,CLASSIFICATION_TYPE,NORAD_CAT_ID,ELEMENT_SET_NO,REV_AT_EPOCH,BSTAR,MEAN_MOTION_DOT,MEAN_MOTION_DDOT
STARLINK-36298,2026-068K,2026-06-15T21:21:11.025216,15.35400328,.00007512,53.1608,31.4694,83.8494,276.2595,0,U,68517,999,1200,.41894501E-3,.14261E-3,0
STARLINK-36857,2026-068L,2026-06-15T22:22:58.717056,15.34393594,.0001051,53.1574,31.0089,102.8651,257.2469,0,U,68518,999,1201,.50919E-3,.16863E-3,0
STARLINK-36326,2026-068M,2026-06-15T22:32:03.651360,15.34400121,.0001088,53.1594,31.0500,81.9591,278.1535,0,U,68519,999,1201,.48156E-3,.15929E-3,0
STARLINK-37126,2026-068N,2026-06-15T22:16:54.610176,15.34399212,.0001128,53.1585,30.9823,95.5243,264.5889,0,U,68520,999,1201,.74061E-3,.24729E-3,0
STARLINK-36347,2026-068P,2026-06-15T22:08:44.894112,15.30198998,.0001288,53.1588,33.0764,91.5409,268.5739,0,U,68521,999,1198,.35065E-3,.1004E-3,0
STARLINK-36322,2026-068Q,2026-06-15T22:35:05.585568,15.34396590,.0001405,53.1594,31.0560,82.7427,277.3735,0,U,68522,999,1201,.56445E-3,.1874E-3,0
STARLINK-37208,2026-068R,2026-06-15T22:01:45.473952,15.34404962,.0000723,53.1584,30.9093,109.5276,250.5805,0,U,68523,999,1201,.52203E-3,.17305E-3,0
STARLINK-36302,2026-068S,2026-06-15T22:44:11.042592,15.34395093,.0001433,53.1607,31.1034,86.9906,273.1261,0,U,68524,999,1201,.70265E-3,.23434E-3,0
STARLINK-36311,2026-068T,2026-06-15T22:41:09.192192,15.34395412,.000121,53.1600,31.0879,74.0594,286.0542,0,U,68525,999,1201,.51893E-3,.17194E-3,0
STARLINK-37178,2026-068U,2026-06-15T20:09:26.894304,15.49338217,.00007694,53.1582,30.4308,66.5055,293.6035,0,U,68526,999,1200,.96485071E-3,.53637E-3,0
STARLINK-37248,2026-068V,2026-06-15T22:37:17.184000,15.34391650,.0001304,53.1599,28.8767,82.2189,277.8962,0,U,68527,999,1204,.80482E-3,.26906E-3,0
STARLINK-37241,2026-068W,2026-06-16T04:00:01.998720,15.33529268,.0001098,53.1579,32.0244,75.7196,145.3253,0,U,68528,999,575,.78323E-3,.25457E-3,0
STARLINK-37244,2026-068X,2026-06-15T21:25:32.023200,15.34407604,.0001318,53.1603,31.4755,83.5666,276.5486,0,U,68529,999,1200,.6567E-3,.21882E-3,0
STARLINK-36285,2026-068Y,2026-06-15T22:20:54.343392,15.30195583,.0001418,53.1586,33.1274,95.9182,264.1980,0,U,68530,999,1198,.31022E-3,.8838E-4,0
STARLINK-36294,2026-068Z,2026-06-15T22:16:20.827776,15.30188675,.0001396,53.1585,33.1079,99.3654,260.7505,0,U,68531,999,1198,.40257E-3,.11578E-3,0
STARLINK-36249,2026-068AA,2026-06-15T21:22:30.080352,15.34403023,.0001299,53.1603,31.4599,92.2960,267.8192,0,U,68532,999,1200,.76425E-3,.25535E-3,0
STARLINK-36252,2026-068AB,2026-06-15T21:13:24.606048,15.34396920,.00013278,53.1606,31.4118,86.8191,273.2964,0,U,68533,999,1200,.58901162E-3,.19574E-3,0
STARLINK-36299,2026-068AC,2026-06-15T21:16:26.793408,15.34394379,.0001387,53.1604,31.4295,80.9696,279.1463,0,U,68534,999,1200,.70764E-3,.23603E-3,0
STARLINK-37234,2026-068AD,2026-06-15T21:43:35.327136,15.49322049,.0000816,53.1591,30.1246,86.6783,273.4319,0,U,68535,999,1202,.10338E-2,.575E-3,0
STARLINK-37173,2026-068AE,2026-06-15T21:38:29.565312,15.49330446,.0000961,53.1584,30.1051,83.1263,276.9856,0,U,68536,999,1202,.601E-3,.33144E-3,0
STARLINK-37326,2026-070A,2026-06-15T13:54:09.386784,15.34417287,.00011034,53.1592,267.0815,74.5456,285.5669,0,U,68542,999,1155,.58336616E-3,.19396E-3,0
STARLINK-36308,2026-070B,2026-06-15T23:13:55.250112,15.34395000,.0001174,53.1590,265.2421,71.1888,288.9241,0,U,68543,999,1161,.6375E-3,.2122E-3,0
STARLINK-37263,2026-070C,2026-06-15T13:45:04.874112,15.34395502,.00012128,53.1592,267.0441,89.1521,270.9621,0,U,68544,999,1155,.79840543E-3,.26691E-3,0
STARLINK-37289,2026-070D,2026-06-15T23:10:52.577184,15.34423492,.0001074,53.1582,265.2350,89.2504,270.8622,0,U,68545,999,1161,.74182E-3,.24789E-3,0
STARLINK-37290,2026-070E,2026-06-15T13:42:03.043584,15.34398845,.00011505,53.1591,267.0182,83.0099,277.1034,0,U,68546,999,1155,.54310287E-3,.18017E-3,0
STARLINK-37245,2026-070F,2026-06-15T13:32:57.943392,15.34394306,.0001012,53.1593,266.9910,74.6860,285.4255,0,U,68547,999,1155,.71535234E-3,.23866E-3,0
STARLINK-37145,2026-070G,2026-06-15T15:12:49.114656,15.34254980,.00010364,53.1591,266.7147,116.2572,243.8537,0,U,68548,999,1156,-.51983466E-2,-.171286E-2,0
STARLINK-36204,2026-070H,2026-06-15T13:29:55.988448,15.34402519,.00009952,53.1593,266.9793,86.2470,273.8646,0,U,68549,999,1155,.89447497E-3,.29968E-3,0
STARLINK-36304,2026-070J,2026-06-15T13:23:52.232352,15.34397839,.00010255,53.1598,266.9547,88.4706,271.6414,0,U,68550,999,1155,.53140633E-3,.17619E-3,0
STARLINK-37288,2026-070K,2026-06-15T13:20:50.080416,15.34384338,.00010693,53.1600,266.9377,59.7596,300.3513,0,U,68551,999,1155,.73516934E-3,.24532E-3,0
STARLINK-37295,2026-070L,2026-06-15T13:26:53.181600,15.34417465,.0001422,53.1596,266.9622,72.7811,287.3347,0,U,68552,999,1155,.57368224E-3,.19067E-3,0
STARLINK-37254,2026-070M,2026-06-16T00:08:19.580352,15.34408797,.0001017,53.1601,264.7636,77.1367,282.9750,0,U,68553,999,1162,.23259E-3,.7492E-4,0
STARLINK-37255,2026-070N,2026-06-16T00:05:17.867328,15.34401398,.0001264,53.1600,264.7541,78.3201,281.7943,0,U,68554,999,1162,.78374E-3,.26197E-3,0
STARLINK-37146,2026-070P,2026-06-16T00:11:22.940160,15.34415573,.0001354,53.1605,264.7730,84.3267,275.7890,0,U,68555,999,1162,.90574E-3,.30365E-3,0
STARLINK-37144,2026-070Q,2026-06-15T23:59:14.208864,15.34401336,.0001748,53.1607,264.7168,68.5050,291.6138,0,U,68556,999,1162,.53384E-3,.17704E-3,0
STARLINK-37210,2026-070R,2026-06-15T13:05:41.733024,15.34392908,.00013453,53.1603,266.8647,89.6979,270.4177,0,U,68557,999,1155,.70853213E-3,.23633E-3,0
STARLINK-37227,2026-070S,2026-06-15T23:56:12.698880,15.34397910,.000141,53.1595,264.7124,67.3950,292.7202,0,U,68558,999,1162,.59938E-3,.19927E-3,0
STARLINK-37294,2026-070T,2026-06-15T23:53:10.871808,15.34398429,.0001306,53.1603,264.6989,69.5996,290.5147,0,U,68559,999,1162,.60357E-3,.2007E-3,0
STARLINK-37291,2026-070U,2026-06-15T23:50:09.049056,15.34400071,.0001101,53.1606,264.6847,82.9384,277.1743,0,U,68560,999,1162,.6333E-3,.21081E-3,0
STARLINK-37114,2026-070V,2026-06-15T23:47:07.297152,15.34400498,.0001099,53.1602,264.6680,75.7996,284.3128,0,U,68561,999,1162,.7857E-3,.26263E-3,0
STARLINK-37233,2026-070W,2026-06-15T12:44:28.585824,15.34392186,.00017426,53.1613,266.7550,67.9593,292.1594,0,U,68562,999,1155,.99550774E-3,.334E-3,0
STARLINK-36238,2026-070X,2026-06-15T23:44:05.540064,15.34395448,.0001272,53.1605,264.6537,83.9759,276.1389,0,U,68563,999,1162,.57581E-3,.19125E-3,0
STARLINK-37008,2026-070Y,2026-06-15T23:38:01.320000,15.34403109,.0000957,53.1614,264.6128,47.2959,312.8124,0,U,68564,999,1162,.62098E-3,.20664E-3,0
STARLINK-37161,2026-070Z,2026-06-15T23:35:00.140928,15.34392244,.0001474,53.1608,264.5958,80.6321,279.4848,0,U,68565,999,1162,.57548E-3,.19112E-3,0
STARLINK-37212,2026-070AA,2026-06-15T23:31:57.851616,15.34404256,.0001139,53.1594,264.5948,93.5000,266.6132,0,U,68566,999,1162,.55369E-3,.1838E-3,0
STARLINK-37261,2026-070AB,2026-06-15T23:28:56.042688,15.34404461,.0001271,53.1585,264.5706,84.9702,275.1446,0,U,68567,999,1162,.53114E-3,.17614E-3,0
STARLINK-37283,2026-070AC,2026-06-15T23:23:00.296736,15.34427384,.0001103,53.1584,265.2797,87.9122,272.2007,0,U,68568,999,1161,.25877E-3,.8384E-4,0
STARLINK-37256,2026-070AD,2026-06-15T23:25:54.823872,15.34393226,.0001352,53.1591,264.5899,70.6052,289.5096,0,U,68569,999,1162,.56787E-3,.18854E-3,0
STARLINK-37228,2026-070AE,2026-06-15T23:19:58.684800,15.34394888,.0001008,53.1586,265.2778,89.5842,270.5276,0,U,68570,999,1161,.36949E-3,.12126E-3,0
STARLINK-37135,2026-073A,2026-06-16T01:55:19.547904,15.33444618,.0001317,97.2844,6.4523,96.5963,263.5430,0,U,68602,999,1096,.45129E-3,.14522E-3,0
STARLINK-37189,2026-073B,2026-06-16T02:14:54.083328,15.33449344,.0001072,97.2841,6.4341,115.8479,244.2875,0,U,68603,999,1096,.60318E-3,.19451E-3,0
STARLINK-37130,2026-073C,2026-06-16T02:22:42.182112,15.33439613,.0002126,97.2852,6.4269,106.0978,254.0499,0,U,68604,999,1096,-.69776E-3,-.22532E-3,0
STARLINK-37131,2026-073D,2026-06-16T02:26:38.944032,15.33448858,.0001214,97.2843,6.4250,78.7185,281.4194,0,U,68605,999,1096,.49215E-3,.15849E-3,0
STARLINK-37253,2026-073E,2026-06-15T23:42:12.303360,15.33446924,.0000728,97.2848,6.4280,82.5654,277.5671,0,U,68606,999,1095,.51941E-3,.16731E-3,0
STARLINK-37246,2026-073F,2026-06-15T14:10:34.116096,15.33435991,.0001262,97.2842,6.0467,86.9569,273.1819,0,U,68607,999,1089,.40809097E-3,.13119E-3,0
STARLINK-37243,2026-073G,2026-06-16T01:31:51.570048,15.33456440,.0001673,97.2845,6.4797,91.4298,268.7137,0,U,68608,999,1096,.47512E-3,.15301E-3,0
STARLINK-37250,2026-073H,2026-06-16T02:30:33.742944,15.33449200,.000107,97.2844,6.4219,79.9968,280.1396,0,U,68609,999,1096,.47884E-3,.15417E-3,0
STARLINK-37105,2026-073J,2026-06-15T23:50:02.289984,15.33445341,.0001418,97.2850,6.4203,83.2728,276.8676,0,U,68610,999,1095,.51384E-3,.1655E-3,0
STARLINK-37177,2026-073K,2026-06-16T03:17:33.139968,15.33445792,.0001921,97.2846,6.5328,83.8693,276.2769,0,U,68611,999,1097,.37186E-3,.11949E-3,0
STARLINK-36386,2026-073L,2026-06-16T02:07:04.443168,15.33440726,.0001392,97.2844,6.4449,86.1809,273.9593,0,U,68612,999,1096,.30423E-3,.9758E-4,0
STARLINK-36187,2026-073M,2026-06-16T02:34:28.691328,15.33449599,.0001192,97.2842,6.5693,82.8226,277.3152,0,U,68613,999,1097,.40313E-3,.12964E-3,0
STARLINK-37170,2026-073N,2026-06-16T03:13:37.767360,15.33470542,.0000624,97.2862,6.5326,88.4928,271.6386,0,U,68614,999,1097,.42902E-3,.13812E-3,0
STARLINK-37176,2026-073P,2026-06-15T12:40:31.018656,15.33427414,.00017132,97.2839,5.9825,93.9328,266.2111,0,U,68615,999,1088,.58819055E-3,.18951E-3,0
STARLINK-37152,2026-073Q,2026-06-16T03:09:43.187040,15.33449196,.0001397,97.2851,6.5339,97.3875,262.7527,0,U,68616,999,1097,.57142E-3,.1842E-3,0
STARLINK-37186,2026-073R,2026-06-16T02:18:50.007168,15.33472351,.0001356,97.2833,6.4333,84.5184,275.6213,0,U,68617,999,1096,.56971E-3,.18378E-3,0
